NORAD_CAT_ID,OBJECT_NAME,OBJECT_TYPE,EPOCH,MEAN_MOTION,ECCENTRICITY,INCLINATION,RA_OF_ASC_NODE,ARG_OF_PERICENTER,MEAN_ANOMALY,BSTAR,MEAN_MOTION_DOT,MEAN_MOTION_DDOT,TLE_LINE0,TLE_LINE1,TLE_LINE2,SEMIMAJOR_AXIS,PERIOD,APOGEE,PERIGEE,DECAYED
53417.0,STARLINK-4484,PAYLOAD,2024-04-30 17:17:24,15.08838366,0.0001317,53.2179,277.6462,82.0527,278.0615,0.00014963,2.094e-05,0.0,0 STARLINK-4484,1 53417U 22097AF  24121.72042412  .00002094  00000-0  14963-3 0  9993,2 53417  53.2179 277.6462 0001317  82.0527 278.0615 15.08838366 95819,6917.885,95.438,540.661,538.839,0.0
53417.0,STARLINK-4484,PAYLOAD,2024-05-01 09:11:15,15.08846335,0.0001451,53.2182,274.6732,107.1911,252.924,0.00017659,2.524e-05,0.0,0 STARLINK-4484,1 53417U 22097AF  24122.38281838  .00002524  00000-0  17659-3 0  9996,2 53417  53.2182 274.6732 0001451 107.1911 252.9240 15.08846335 96377,6917.861,95.437,540.73,538.722,0.0
53417.0,STARLINK-4484,PAYLOAD,2024-05-01 17:08:11,15.08841311,0.0001373,53.2183,273.1859,103.2081,256.9064,0.00010314,1.354e-05,0.0,0 STARLINK-4484,1 53417U 22097AF  24122.71402046  .00001354  00000-0  10314-3 0  9990,2 53417  53.2183 273.1859 0001373 103.2081 256.9064 15.08841311 96423,6917.876,95.437,540.691,538.792,0.0
53417.0,STARLINK-4484,PAYLOAD,2024-05-02 09:02:02,15.08849351,0.0001464,53.2192,270.212,103.6347,256.4808,-1.8849e-05,-5.88e-06,0.0,0 STARLINK-4484,1 53417U 22097AF  24123.37641522 -.00000588  00000-0 -18849-4 0  9999,2 53417  53.2192 270.2120 0001464 103.6347 256.4808 15.08849351 96065,6917.852,95.437,540.73,538.704,0.0
53417.0,STARLINK-4484,PAYLOAD,2024-05-02 13:48:12,15.08840741,0.0001198,53.2168,269.3195,101.7585,258.3542,4.1432e-05,3.72e-06,0.0,0 STARLINK-4484,1 53417U 22097AF  24123.57513942  .00000372  00000-0  41432-4 0  9998,2 53417  53.2168 269.3195 0001198 101.7585 258.3542 15.08840741 96550,6917.878,95.438,540.572,538.914,0.0
53417.0,STARLINK-4484,PAYLOAD,2024-05-02 16:58:58,15.08838502,0.0001158,53.2166,268.7213,84.2278,275.8846,5.7161e-05,6.22e-06,0.0,0 STARLINK-4484,1 53417U 22097AF  24123.70762460  .00000622  00000-0  57161-4 0  9998,2 53417  53.2166 268.7213 0001158  84.2278 275.8846 15.08838502 96117,6917.885,95.438,540.551,538.949,0.0
53417.0,STARLINK-4484,PAYLOAD,2024-05-03 02:31:17,15.08845022,0.0001343,53.218,266.9374,85.5577,274.5569,0.00010153,1.329e-05,0.0,0 STARLINK-4484,1 53417U 22097AF  24124.10505874  .00001329  00000-0  10153-3 0  9991,2 53417  53.2180 266.9374 0001343  85.5577 274.5569 15.08845022 96172,6917.865,95.437,540.659,538.801,0.0
53417.0,STARLINK-4484,PAYLOAD,2024-05-03 13:38:58,15.08844281,0.0001716,53.2184,264.8575,92.7511,267.3677,6.829e-05,7.99e-06,0.0,0 STARLINK-4484,1 53417U 22097AF  24124.56873704  .00000799  00000-0  68290-4 0  9997,2 53417  53.2184 264.8575 0001716  92.7511 267.3677 15.08844281 96703,6917.867,95.437,540.919,538.545,0.0
53417.0,STARLINK-4484,PAYLOAD,2024-05-03 18:25:08,15.08848545,0.0001782,53.2164,263.9655,95.0001,265.1195,0.00015342,2.155e-05,0.0,0 STARLINK-4484,1 53417U 22097AF  24124.76745415  .00002155  00000-0  15342-3 0  9993,2 53417  53.2164 263.9655 0001782  95.0001 265.1195 15.08848545 96734,6917.854,95.437,540.952,538.487,0.0
53417.0,STARLINK-4484,PAYLOAD,2024-05-04 13:29:46,15.08835186,0.000152,53.2161,260.3923,120.2107,239.9036,-2.9173e-05,-7.52e-06,0.0,0 STARLINK-4484,1 53417U 22097AF  24125.56234101 -.00000752  00000-0 -29173-4 0  9998,2 53417  53.2161 260.3923 0001520 120.2107 239.9036 15.08835186 96390,6917.895,95.438,540.812,538.709,0.0
53417.0,STARLINK-4484,PAYLOAD,2024-05-04 18:15:56,15.0883064,0.0001158,53.2176,259.5025,100.149,259.9633,4.0302e-05,3.54e-06,0.0,0 STARLINK-4484,1 53417U 22097AF  24125.76106974  .00000354  00000-0  40302-4 0  9999,2 53417  53.2176 259.5025 0001158 100.1490 259.9633 15.08830640 96427,6917.909,95.438,540.575,538.973,0.0
53417.0,STARLINK-4484,PAYLOAD,2024-05-05 02:12:51,15.08838878,0.0001358,53.2186,258.0186,94.5094,265.6053,4.671e-05,4.56e-06,0.0,0 STARLINK-4484,1 53417U 22097AF  24126.09226620  .00000456  00000-0  46710-4 0  9999,2 53417  53.2186 258.0186 0001358  94.5094 265.6053 15.08838878 96474,6917.884,95.438,540.688,538.809,0.0
53417.0,STARLINK-4484,PAYLOAD,2024-05-05 13:20:33,15.08844518,0.0001261,53.2176,255.9381,95.2213,264.8923,0.00012541,1.709e-05,0.0,0 STARLINK-4484,1 53417U 22097AF  24126.55594231  .00001709  00000-0  12541-3 0  9992,2 53417  53.2176 255.9381 0001261  95.2213 264.8923 15.08844518 97005,6917.867,95.437,540.604,538.859,0.0
53417.0,STARLINK-4484,PAYLOAD,2024-05-05 14:55:56,15.08851951,0.0001278,53.2177,255.6379,100.5102,259.6035,0.00010283,1.35e-05,0.0,0 STARLINK-4484,1 53417U 22097AF  24126.62217772  .00001350  00000-0  10283-3 0  9995,2 53417  53.2177 255.6379 0001278 100.5102 259.6035 15.08851951 96559,6917.844,95.437,540.593,538.825,0.0
53417.0,STARLINK-4484,PAYLOAD,2024-05-06 13:11:20,15.08849395,0.0001714,53.2172,251.4745,125.3329,234.7823,0.00034041,5.135e-05,0.0,0 STARLINK-4484,1 53417U 22097AF  24127.54953849  .00005135  00000-0  34041-3 0  9992,2 53417  53.2172 251.4745 0001714 125.3329 234.7823 15.08849395 96699,6917.852,95.437,540.902,538.531,0.0
53417.0,STARLINK-4484,PAYLOAD,2024-05-06 14:46:43,15.08843954,0.0001349,53.2173,251.1783,94.5451,265.5695,0.00027117,4.031e-05,0.0,0 STARLINK-4484,1 53417U 22097AF  24127.61578242  .00004031  00000-0  27117-3 0  9990,2 53417  53.2173 251.1783 0001349  94.5451 265.5695 15.08843954 96702,6917.868,95.437,540.667,538.8,0.0
53417.0,STARLINK-4484,PAYLOAD,2024-05-07 13:02:07,15.08837587,0.0001117,53.216,247.0161,113.4943,246.6167,8.8906e-06,-1.46e-06,0.0,0 STARLINK-4484,1 53417U 22097AF  24128.54314547 -.00000146  00000-0  88906-5 0  9998,2 53417  53.2160 247.0161 0001117 113.4943 246.6167 15.08837587 96846,6917.888,95.438,540.525,538.98,0.0
53417.0,STARLINK-4484,PAYLOAD,2024-05-07 14:37:31,15.08829577,0.000113,53.2181,246.7172,97.3595,262.7526,-0.00012163,-2.222e-05,0.0,0 STARLINK-4484,1 53417U 22097AF  24128.60938952 -.00002222  00000-0 -12163-3 0  9995,2 53417  53.2181 246.7172 0001130  97.3595 262.7526 15.08829577 97316,6917.912,95.438,540.559,538.996,0.0
53417.0,STARLINK-4484,PAYLOAD,2024-05-08 14:28:18,15.08834594,0.0001071,53.2169,242.2572,92.4933,267.6182,0.00022025,3.219e-05,0.0,0 STARLINK-4484,1 53417U 22097AF  24129.60299490  .00003219  00000-0  22025-3 0  9996,2 53417  53.2169 242.2572 0001071  92.4933 267.6182 15.08834594 97466,6917.897,95.438,540.503,539.021,0.0
53417.0,STARLINK-4484,PAYLOAD,2024-05-09 00:00:37,15.08849169,0.0001048,53.2173,240.4721,90.4358,269.6754,0.00045891,7.025e-05,0.0,0 STARLINK-4484,1 53417U 22097AF  24130.00043097  .00007025  00000-0  45891-3 0  9997,2 53417  53.2173 240.4721 0001048  90.4358 269.6754 15.08849169 97067,6917.852,95.437,540.442,538.992,0.0
53417.0,STARLINK-4484,PAYLOAD,2024-05-09 12:43:42,15.08846094,0.0001174,53.2184,238.0974,102.2231,257.8893,0.00038713,5.88e-05,0.0,0 STARLINK-4484,1 53417U 22097AF  24130.53035461  .00005880  00000-0  38713-3 0  9993,2 53417  53.2184 238.0974 0001174 102.2231 257.8893 15.08846094 97140,6917.862,95.437,540.539,538.915,0.0
53417.0,STARLINK-4484,PAYLOAD,2024-05-09 14:19:05,15.08846754,0.0001132,53.2179,237.8003,97.1729,262.9391,0.00043884,6.704e-05,0.0,0 STARLINK-4484,1 53417U 22097AF  24130.59659426  .00006704  00000-0  43884-3 0  9993,2 53417  53.2179 237.8003 0001132  97.1729 262.9391 15.08846754 97617,6917.86,95.437,540.508,538.942,0.0
53417.0,STARLINK-4484,PAYLOAD,2024-05-09 23:51:23,15.08862946,0.0001198,53.2178,236.0153,93.8582,266.2547,0.00060952,9.432e-05,0.0,0 STARLINK-4484,1 53417U 22097AF  24130.99402635  .00009432  00000-0  60952-3 0  9991,2 53417  53.2178 236.0153 0001198  93.8582 266.2547 15.08862946 97212,6917.81,95.436,540.504,538.846,0.0
53417.0,STARLINK-4484,PAYLOAD,2024-05-10 12:34:29,15.08841148,0.0001303,53.2178,233.6367,102.3718,257.742,-3.9921e-05,-9.23e-06,0.0,0 STARLINK-4484,1 53417U 22097AF  24131.52395096 -.00000923  00000-0 -39921-4 0  9994,2 53417  53.2178 233.6367 0001303 102.3718 257.7420 15.08841148 97291,6917.877,95.437,540.643,538.84,0.0
53417.0,STARLINK-4484,PAYLOAD,2024-05-10 15:45:15,15.0885125,0.0001277,53.2178,233.0407,97.9071,262.2066,0.00023806,3.504e-05,0.0,0 STARLINK-4484,1 53417U 22097AF  24131.65642839  .00003504  00000-0  23806-3 0  9998,2 53417  53.2178 233.0407 0001277  97.9071 262.2066 15.08851250 97776,6917.846,95.437,540.594,538.828,0.0
53417.0,STARLINK-4484,PAYLOAD,2024-05-11 15:35:59,15.08793267,9.74e-05,53.2155,228.5782,130.6165,229.4912,-0.0030645,-0.00048667,0.0,0 STARLINK-4484,1 53417U 22097AF  24132.64999481 -.00048667  00000-0 -30645-2 0  9995,2 53417  53.2155 228.5782 0000974 130.6165 229.4912 15.08793267 97462,6918.023,95.441,540.562,539.214,0.0
53417.0,STARLINK-4484,PAYLOAD,2024-05-11 23:32:57,15.08774865,9.35e-05,53.2159,227.0913,95.1744,264.9355,-0.00078901,-0.000128,0.0,0 STARLINK-4484,1 53417U 22097AF  24132.98121583 -.00012800  00000-0 -78901-3 0  9990,2 53417  53.2159 227.0913 0000935  95.1744 264.9355 15.08774865 97515,6918.079,95.442,540.591,539.298,0.0
53417.0,STARLINK-4484,PAYLOAD,2024-05-12 13:51:30,15.08758562,0.0001258,53.2156,224.4159,111.1839,248.9288,0.0035463,0.00056477,0.0,0 STARLINK-4484,1 53417U 22097AF  24133.57743841  .00056477  00000-0  35463-2 0  9994,2 53417  53.2156 224.4159 0001258 111.1839 248.9288 15.08758562 97601,6918.129,95.443,540.865,539.124,0.0
53417.0,STARLINK-4484,PAYLOAD,2024-05-12 15:26:54,15.08784834,0.0001243,53.2156,224.119,102.8015,257.3116,0.00172,0.0002715,0.0,0 STARLINK-4484,1 53417U 22097AF  24133.64368136  .00027150  00000-0  17200-2 0  9997,2 53417  53.2156 224.1190 0001243 102.8015 257.3116 15.08784834 98077,6918.049,95.441,540.774,539.054,0.0
53417.0,STARLINK-4484,PAYLOAD,2024-05-13 12:06:55,15.08869065,0.0001444,53.216,220.2525,110.4396,249.6752,0.0019423,0.00030784,0.0,0 STARLINK-4484,1 53417U 22097AF  24134.50480421  .00030784  00000-0  19423-2 0  9991,2 53417  53.2160 220.2525 0001444 110.4396 249.6752 15.08869065 97744,6917.792,95.436,540.655,538.658,0.0
